#dP2024  6 28  0  0  0.00000000      96 __u+U IGS20 FIT  IAC
## 2320 432000.00000000   900.00000000 60489 0.0000000000000
+   54   G02G03G04G05G06G07G08G09G10G11G12G13G14G15G16G17G18
+        G19G20G21G22G23G24G25G26G27G28G29G30G31G32R01R02R03
+        R04R05R07R08R09R11R12R13R14R15R16R17R18R19R20R21R22
+        R24R25R26  0  0  0  0  0  0  0  0  0  0  0  0  0  0
+          0  0  0  0  0  0  0  0  0  0  0  0  0  0  0  0  0
++         6  5  7  5  7  7  8  6  6  6  6  7  5  7  4  8  7
++         7  7  6  5  0  6  6  5  5  5  7  6  5  4  6  7  6
++         5  7  8  5  7  4  6  7  8  6  5  7  6  7  8  6  5
++         8  6  7  0  0  0  0  0  0  0  0  0  0  0  0  0  0
++         0  0  0  0  0  0  0  0  0  0  0  0  0  0  0  0  0
%c M  cc GPS ccc cccc cccc cccc cccc ccccc ccccc ccccc ccccc
%c cc cc ccc ccc cccc cccc cccc cccc ccccc ccccc ccccc ccccc
%f  0.0000000  0.000000000  0.00000000000  0.000000000000000
%f  0.0000000  0.000000000  0.00000000000  0.000000000000000
%i    0    0    0    0      0      0      0      0         0
%i    0    0    0    0      0      0      0      0         0
/* INFORMATION & ANALYSIS CENTER (IAC)      ULTRA-RAPID DATA
/* S/V CLOCKS ARE ALIGNED TO GNSS TIME                      
/* G:C1WC2W R:C1PC2P E:C1XC5X C:C2IC6I J:C1CC2S             
/* PCV:IGS20_2317 OL/AL:FES2004  NONE     YN ORB:CoN CLK:CoN
*  2024 06 28  8  0  0.00000000
PG02  12173.819334 -20920.639753 -10102.284859   -409.392314
PG03    349.432802 -15444.642781 -21783.517918    434.042767
PG04   1657.845741 -25642.629883  -6416.715792    392.563721
PG05 -16644.845777   7948.439568  18958.880164   -177.874224
PG06 -19795.031956    502.152804 -17694.978545    193.329108
PG07  -5812.664363 -15050.412134  21559.618285    -81.847554
PG08   7876.089691 -19541.838992  15797.702700    250.403645
PG09  -7812.534731 -24835.200339   5026.240111    251.933551
PG10  24418.650357  10825.374505   1454.278268    -52.925622
PG11 -23208.341442  11105.788375  -6450.454463   -694.549370
PG12  -4074.819330  14942.353641 -21860.295638   -517.813924
PG13 -13272.472917  11756.769445  19485.806229    660.966302
PG14 -22609.510065 -13363.322648   4721.024789    436.019703
PG15  -5310.782750  20708.993986  15137.430430    175.062523
PG16  20013.790925  -3240.314774  17052.451938   -251.883536
PG17 -12749.010561 -15867.937214 -16557.430072    687.500401
PG18   5688.320440  14187.094385  21711.104481   -630.406506
PG19 -14849.153877  -6916.412902 -21157.575736    502.733788
PG20 -23448.046501   3727.731592  11809.465975    373.350475
PG21  15709.652515 -19943.509068  -5231.578593    112.534148
PG22 -24233.075042  -9869.249135  -3104.812049    -32.934683
PG23      0.000000      0.000000      0.000000 999999.999999
PG24 -12601.663712  21449.897541  -9118.207959   -480.425351
PG25   7727.512817  17409.018195 -18951.912866    497.916579
PG26  25870.825734   3541.898955   5677.828590    129.496969
PG27  13403.878823  -8632.762790  20879.967704    -29.652518
PG28  18656.004012   1505.972275 -18854.587058   -308.232279
PG29   3394.601308  26165.746526   2331.170529   -592.181769
PG30 -15620.729424  -6974.753992  20524.541593   -366.943749
PG31  23224.384549  -7723.294262 -11006.461154   -227.135989
PG32  14508.949138  13421.682208 -17623.805941   -614.646632
PR01  13806.442352   3401.975315 -21172.537076     89.733575
PR02   4509.265019 -12614.668314 -21648.291717    -23.470388
PR03  -7415.177878 -22310.388655  -9779.819331    102.873737
PR04 -14648.457794 -19650.094067   7078.252506    243.097033
PR05 -14203.781817  -6470.106235  20180.076882    133.756639
PR07   7806.333164  22514.087629   9208.045180     85.513860
PR08  14867.443838  19451.752665  -7156.818628     -5.403013
PR09 -16943.151249   8851.805377 -16911.806797    194.681298
PR11  17215.769638   7986.902616 -17018.128279     19.965662
PR12  25492.409699   -449.341731    959.401073     41.824817
PR13  19086.513768  -7505.567861  15159.450731    -48.777486
PR14   -978.565048 -11147.781325  22940.458327     26.631844
PR15 -18492.941814  -7654.305727  15845.683322     78.397585
PR16 -25516.734598    413.258720   -664.429084     26.872134
PR17   5632.536852 -21193.951019 -13066.032218     99.801196
PR18  -5514.837650 -10540.191383 -22548.365831    149.219266
PR19 -13554.213558   3291.500965 -21360.210543   -281.921345
PR20 -15574.700398  19568.245412  -5109.419098   -115.236464
PR21  -6051.462334  21196.013796  12803.148691   -113.008837
PR22   6361.228936   9919.598268  22646.205210     96.767935
PR24  14626.046623 -20414.855877   4544.414031    -61.634881
PR25  -6070.106463  20915.732397  13261.945080    -91.462598
PR26  14676.877775  19986.362435  -5909.318360     -5.321377
*  2024 06 28  8 15  0.00000000
PG02  13108.354982 -21502.955734  -7464.567380   -409.385823
PG03   2678.608961 -14613.342748 -22183.899151    434.058240
PG04   2018.587568 -24792.360365  -9100.829842    392.570894
PG05 -18621.773093   7209.017154  17371.700924   -177.875099
PG06 -18213.671771   -909.139485 -19289.934338    193.309358
PG07  -3976.648125 -16489.203130  20855.328392    -81.839523
PG08   8481.749489 -17680.118402  17601.976921    250.419195
PG09  -7640.833397 -25303.175969   2210.914520    251.946878
PG10  24079.362758  10871.741579   4312.998471    -52.933614
PG11 -22636.807742  10379.710533  -9130.423135   -694.556209
PG12  -6316.686646  13960.769920 -21973.291620   -517.817023
PG13 -13456.294690   9422.042523  20605.718298    660.968660
PG14 -21870.993631 -13365.701483   7419.469827    436.027770
PG15  -6160.615154  18955.010738  16961.709682    175.066190
PG16  21658.770249  -2309.926438  15163.849433   -251.873865
PG17 -12783.297945 -17730.143046 -14557.216686    687.494144
PG18   3755.326875  15685.130428  21073.504332   -630.410562
PG19 -14957.572604  -9234.851469 -20201.538745    502.738642
PG20 -24595.383144   3279.267445   9321.634619    373.349911
PG21  16295.120816 -20061.960769  -2358.706792    112.531807
PG22 -24331.069456 -10222.737526   -239.580923    -32.938913
PG23      0.000000      0.000000      0.000000 999999.999999
PG24 -13437.684863  21830.681878  -6489.439383   -480.427272
PG25   5639.006721  16808.693547 -20188.623686    497.916981
PG26  26280.614663   3970.832718   2961.665847    129.491112
PG27  13926.900067  -6199.815933  21425.268699    -29.653517
PG28  17075.351280   3080.208170 -20119.116105   -308.246967
PG29   3171.175016  26296.665442   -550.125608   -592.180184
PG30 -13857.086146  -8543.108430  21168.458638   -366.938024
PG31  22296.237940  -6721.880356 -13343.293351   -227.135764
PG32  14718.290096  15359.257021 -15814.020859   -614.645211
PR01  15241.602628   5477.719122 -19700.408780     89.734858
PR02   5878.418041 -10239.445519 -22557.842939    -23.469936
PR03  -6806.589639 -21052.732031 -12596.517954    102.874393
PR04 -15146.175361 -20140.943705   3943.223881    243.098327
PR05 -15506.398083  -8465.149092  18402.115115    133.757152
PR07   7252.914658  21322.549422  12062.352030     85.514968
PR08  15368.159687  19964.254685  -4035.418375     -5.403046
PR09 -18880.617461   9036.900561 -14616.016620    194.682806
PR11  14987.129052   7984.178071 -19011.236054     19.964273
PR12  25405.166723   -579.346215  -2243.584250     41.825229
PR13  20794.735000  -7683.425107  12610.391510    -48.777335
PR14   1837.219272 -11265.392657  22827.955597     26.632214
PR15 -16408.148775  -7632.301953  18007.144018     78.397305
PR16 -25397.107301    564.433697   2545.006338     26.872522
PR17   6181.110096 -22536.531876 -10277.766374     99.804464
PR18  -4224.086931 -12943.918378 -21550.227301    149.220982
PR19 -12086.131747   1017.118125 -22444.176083   -281.923452
PR20 -14963.018505  18977.054354  -8216.882915   -115.237604
PR21  -6590.311887  22510.103154   9982.589556   -113.011297
PR22   4986.103288  12287.388883  21814.452911     96.763016
PR24  14133.302036 -19829.677491   7643.215109    -61.636605
PR25  -6720.775568  22237.068164  10511.259540    -91.489946
PR26  15095.909185  20358.741447  -2744.673298     -5.320562
EOF
